CUBEBUG-2 (LO-74)
1 39440U 13066AA  26198.60635635  .00001948  00000-0  18322-3 0  9997
2 39440  97.8919 147.7205 0055601 287.2018  72.3120 14.93976531681532
FUNCUBE-1 (AO-73)
1 39444U 13066AE  26198.34715986  .00004168  00000-0  25766-3 0  9997
2 39444  97.8294 170.4330 0037942 100.7078 259.8426 15.09834376684214
UWE-3
1 39446U 13066AG  26198.35863993  .00002054  00000-0  17893-3 0  9996
2 39446  97.8718 154.6426 0047589 217.0557 142.7376 14.97207851682095
UNISAT-6
1 40012U 14033C   26198.25284144  .00001050  00000-0  11750-3 0  9997
2 40012  97.7911 350.4435 0044023 330.8621  29.0140 14.88371050650636
DUCHIFAT-1
1 40021U 14033M   26197.69874411  .00099153  00000-0  77546-3 0  9992
2 40021  98.0414 261.1627 0002787 236.8489 123.2505 15.71313651660377
LILACSAT-2
1 40908U 15049K   26198.57664037  .00010811  00000-0  17847-3 0  9995
2 40908  97.4622 236.5886 0008501 134.5938 225.6010 15.52412720600469
CAS-2T & KS-1Q
1 41847U 16066G   26198.15953041  .00000472  00000-0  74643-4 0  9998
2 41847  98.3813 273.5527 0342144  38.8094 323.7141 14.44772533509127
FOX-1B (AO-91)
1 43017U 17073E   26198.56599503  .00003831  00000-0  16851-3 0  9990
2 43017  97.4662  65.1618 0148332 223.2065 135.7454 15.13080744469987
FUNCUBE-3 (EO-79)/QB50P1
1 40025U 14033R   26198.00121204  .00004208  00000-0  20647-3 0  9994
2 40025  98.0964 211.2472 0010459 119.5295 240.6982 15.18681576657556
FOX-1A (AO-85)
1 40967U 15058D   26198.40070854  .00001604  00000-0  15191-3 0  9990
2 40967  64.7725 185.0785 0132538  44.9727 316.2027 14.91095970118071
DIWATA-2B (PO-101)
1 43678U 18084H   26198.57819419  .00001022  00000-0  86118-4 0  9992
2 43678  98.1211  36.1171 0012683  77.0926 283.1713 15.00568470420773
ESHAIL-2
1 43700U 18090A   26198.62941420  .00000135  00000-0  00000-0 0  9995
2 43700   0.0133  73.4101 0002306  84.9981  29.4009  1.00272343 27981
ITASAT-1
1 43786U 18099AE  26198.58277241  .00002956  00000-0  14271-3 0  9997
2 43786  97.4008 249.4921 0010995 240.9559 119.0575 15.19397594417527
FOX-1CLIFF (AO-95)
1 43770U 18099N   26198.41757723  .00005742  00000-0  21739-3 0  9993
2 43770  97.4364 258.5624 0007428 230.6707 129.3874 15.27300598417831
JY1SAT (JO-97)
1 43803U 18099AX  26198.62130862  .00009074  00000-0  27313-3 0  9998
2 43803  97.4108 261.5784 0007057 150.8964 209.2673 15.34566538418293
UWE-4
1 43880U 18111E   26198.55033638  .00018535  00000-0  35698-3 0  9990
2 43880  97.5840 128.3820 0006531 185.4012 174.7168 15.47912898415477
CAS-6 (TO-108)
1 44881U 19093C   26198.60416730  .00000183  00000-0  26641-4 0  9995
2 44881  97.7520 270.0929 0013398 353.5149   6.5891 14.86561127355935
DOSAAF-85 (RS-44)
1 44909U 19096E   26198.57377629  .00000020  00000-0  28150-4 0  9995
2 44909  82.5243 319.5142 0218494  73.4624 289.0355 12.79748887306238
SALSAT (TUBSAT 22)
1 46495U 20068K   26197.96833821  .00003909  00000-0  13663-3 0  9992
2 46495  97.8858 202.8562 0009384 186.4299 173.6821 15.30186484319914
CAMSAT XW-3 (CAS-9)
1 50466U 21131B   26198.59875556  .00000247  00000-0  89915-4 0  9994
2 50466  98.4992 290.8245 0004459  24.2413 335.8985 14.41382942239498
ROBUSTA 1F (MTCUBE-2)
1 53109U 22080E   26198.22212606 -.00000003  00000-0  00000-0 0  9991
2 53109  70.1407 287.8015 0009072 282.9900  76.9746  6.42583336 93997
UMKA-1 (RS40S)
1 57172U 23091G   26198.61983822  .00002989  00000-0  13720-3 0  9996
2 57172  97.5031 257.2037 0012789  21.3819 338.7949 15.21136007168639
CUBESX-HSE-3 (RS42S)
1 57178U 23091N   26198.61927919  .00006498  00000-0  21320-3 0  9991
2 57178  97.5072 264.6042 0009405 353.1084   7.0026 15.31918640169083
MONITOR-3 (RS58S)
1 57180U 23091Q   26198.58145706  .00005227  00000-0  19154-3 0  9997
2 57180  97.5063 262.2601 0010732   1.1997 358.9266 15.28398627168939
MONITOR-4 (RS57S)
1 57182U 23091S   26198.62428439  .00005108  00000-0  18677-3 0  9998
2 57182  97.5057 262.2762 0010738   1.3383 358.7884 15.28486233168945
MONITOR-2 (RS39S)
1 57184U 23091U   26198.61407361  .00002206  00000-0  10807-3 0  9993
2 57184  97.5053 256.7025 0011143  15.8917 344.2665 15.19166216168579
SVYATOBOR-1 (RS60S)
1 57187U 23091X   26198.59892349  .00004361  00000-0  16685-3 0  9991
2 57187  97.5071 262.5917 0008493 356.0094   4.1076 15.27085212168952
VIZARD-METEO (RS38S)
1 57189U 23091Z   26198.62610055  .00008482  00000-0  23720-3 0  9995
2 57189  97.5074 268.7394 0005468 329.3404  30.7520 15.36919202169361
UTMN-2 (RS27S)
1 57203U 23091AP  26198.62048499  .00006430  00000-0  20584-3 0  9995
2 57203  97.5069 266.2761 0006504 340.7545  19.3451 15.32735350169203
POLYTECH UNIVERSE-3 (RS46S)
1 57191U 23091AB  26198.63711760  .00002538  00000-0  12290-3 0  9990
2 57191  97.5028 256.2297 0015840  29.6327 330.5801 15.19379322168575
